[{"OBJECT_NAME":"STARLINK-34772","OBJECT_ID":"2025-161F","EPOCH":"2026-03-09T20:10:11.587296","MEAN_MOTION":15.30214575,"ECCENTRICITY":8.383e-5,"INCLINATION":53.157,"RA_OF_ASC_NODE":293.452,"ARG_OF_PERICENTER":108.4663,"MEAN_ANOMALY":251.6429,"EPHEMERIS_TYPE":0,"CLASSIFICATION_TYPE":"U","NORAD_CAT_ID":65020,"ELEMENT_SET_NO":999,"REV_AT_EPOCH":3546,"BSTAR":0.00092599259,"MEAN_MOTION_DOT":0.00027179,"MEAN_MOTION_DDOT":0},{"OBJECT_NAME":"GLOBAL-34","OBJECT_ID":"2026-043A","EPOCH":"2026-03-09T11:23:30.999840","MEAN_MOTION":15.31488019,"ECCENTRICITY":0.00068849,"INCLINATION":42.0215,"RA_OF_ASC_NODE":76.7399,"ARG_OF_PERICENTER":289.2632,"MEAN_ANOMALY":70.746,"EPHEMERIS_TYPE":0,"CLASSIFICATION_TYPE":"U","NORAD_CAT_ID":68098,"ELEMENT_SET_NO":999,"REV_AT_EPOCH":53,"BSTAR":0.00045822046,"MEAN_MOTION_DOT":0.00014018,"MEAN_MOTION_DDOT":0}]
